NORAD_CAT_ID,OBJECT_NAME,OBJECT_TYPE,EPOCH,MEAN_MOTION,ECCENTRICITY,INCLINATION,RA_OF_ASC_NODE,ARG_OF_PERICENTER,MEAN_ANOMALY,BSTAR,MEAN_MOTION_DOT,MEAN_MOTION_DDOT,TLE_LINE0,TLE_LINE1,TLE_LINE2,SEMIMAJOR_AXIS,PERIOD,APOGEE,PERIGEE,DECAYED
53801.0,STARLINK-4715,PAYLOAD,2023-11-08 12:21:48,15.07196199,0.0001446,53.2177,129.9123,85.2159,274.8997,0.00030725,4.395e-05,0.0,0 STARLINK-4715,1 53801U 22111AE  23312.51514950  .00004395  00000-0  30725-3 0  9996,2 53801  53.2177 129.9123 0001446  85.2159 274.8997 15.07196199 65168,6922.909,95.542,545.775,543.773,0.0
53801.0,STARLINK-4715,PAYLOAD,2023-11-08 18:43:46,15.07202371,0.0001368,53.2166,128.723,89.5022,270.6126,0.00053255,7.832e-05,0.0,0 STARLINK-4715,1 53801U 22111AE  23312.78039763  .00007832  00000-0  53255-3 0  9991,2 53801  53.2166 128.7230 0001368  89.5022 270.6126 15.07202371 65204,6922.89,95.541,545.703,543.808,0.0
53801.0,STARLINK-4715,PAYLOAD,2023-11-09 12:14:08,15.07215995,0.0001391,53.2165,125.4586,92.9497,267.1654,0.00052507,7.72e-05,0.0,0 STARLINK-4715,1 53801U 22111AE  23313.50982571  .00007720  00000-0  52507-3 0  9991,2 53801  53.2165 125.4586 0001391  92.9497 267.1654 15.07215995 65316,6922.849,95.54,545.677,543.751,0.0
53801.0,STARLINK-4715,PAYLOAD,2023-11-09 18:36:06,15.07220208,0.0001394,53.2163,124.2691,85.8198,274.2952,0.00054568,8.036e-05,0.0,0 STARLINK-4715,1 53801U 22111AE  23313.77507074  .00008036  00000-0  54568-3 0  9991,2 53801  53.2163 124.2691 0001394  85.8198 274.2952 15.07220208 65357,6922.836,95.54,545.666,543.736,0.0
53801.0,STARLINK-4715,PAYLOAD,2023-11-10 04:09:02,15.07214506,0.0001289,53.2154,122.4886,86.6905,273.4234,0.00019839,2.739e-05,0.0,0 STARLINK-4715,1 53801U 22111AE  23314.17294099  .00002739  00000-0  19839-3 0  9992,2 53801  53.2154 122.4886 0001289  86.6905 273.4234 15.07214506 64606,6922.853,95.54,545.611,543.826,0.0
53801.0,STARLINK-4715,PAYLOAD,2023-11-10 12:06:29,15.07206486,0.0001351,53.2161,121.0035,90.0023,270.1124,3.6519e-05,2.73e-06,0.0,0 STARLINK-4715,1 53801U 22111AE  23314.50450272  .00000273  00000-0  36519-4 0  9992,2 53801  53.2161 121.0035 0001351  90.0023 270.1124 15.07206486 64650,6922.878,95.541,545.678,543.808,0.0
53801.0,STARLINK-4715,PAYLOAD,2023-11-10 16:52:57,15.07207587,0.0001357,53.2163,120.1128,91.0839,269.0308,9.2028e-05,1.118e-05,0.0,0 STARLINK-4715,1 53801U 22111AE  23314.70343852  .00001118  00000-0  92028-4 0  9995,2 53801  53.2163 120.1128 0001357  91.0839 269.0308 15.07207587 65494,6922.875,95.541,545.679,543.8,0.0
53801.0,STARLINK-4715,PAYLOAD,2023-11-11 10:23:19,15.0720881,0.0001372,53.2164,116.8468,92.4539,267.661,2.4187e-05,8.5e-07,0.0,0 STARLINK-4715,1 53801U 22111AE  23315.43286761  .00000085  00000-0  24187-4 0  9994,2 53801  53.2164 116.8468 0001372  92.4539 267.6610 15.07208810 65606,6922.871,95.541,545.686,543.786,0.0
53801.0,STARLINK-4715,PAYLOAD,2023-11-11 19:56:16,15.07209876,0.0001358,53.2176,115.0648,90.6736,269.4411,1.8697e-05,1e-08,0.0,0 STARLINK-4715,1 53801U 22111AE  23315.83074098  .00000001  00000-0  18697-4 0  9993,2 53801  53.2176 115.0648 0001358  90.6736 269.4411 15.07209876 64851,6922.868,95.541,545.673,543.792,0.0
53801.0,STARLINK-4715,PAYLOAD,2023-11-12 10:15:40,15.07203062,0.0001392,53.2177,112.3912,90.191,269.9241,8.4747e-05,1.007e-05,0.0,0 STARLINK-4715,1 53801U 22111AE  23316.42755048  .00001007  00000-0  84747-4 0  9996,2 53801  53.2177 112.3912 0001392  90.1910 269.9241 15.07203062 65750,6922.888,95.541,545.717,543.79,0.0
53801.0,STARLINK-4715,PAYLOAD,2023-11-12 18:13:06,15.07209315,0.0001381,53.2177,110.9067,89.69,270.425,0.00010687,1.344e-05,0.0,0 STARLINK-4715,1 53801U 22111AE  23316.75910539  .00001344  00000-0  10687-3 0  9995,2 53801  53.2177 110.9067 0001381  89.6900 270.4250 15.07209315 65805,6922.869,95.541,545.69,543.778,0.0
53801.0,STARLINK-4715,PAYLOAD,2023-11-13 03:46:02,15.07207926,0.0001422,53.2181,109.1257,87.8277,272.2878,0.00010101,1.255e-05,0.0,0 STARLINK-4715,1 53801U 22111AE  23317.15697726  .00001255  00000-0  10101-3 0  9992,2 53801  53.2181 109.1257 0001422  87.8277 272.2878 15.07207926 65053,6922.873,95.541,545.723,543.754,0.0
53801.0,STARLINK-4715,PAYLOAD,2023-11-13 10:08:00,15.07208131,0.0001442,53.2181,107.9381,87.7799,272.3357,0.00010305,1.286e-05,0.0,0 STARLINK-4715,1 53801U 22111AE  23317.42222459  .00001286  00000-0  10305-3 0  9999,2 53801  53.2181 107.9381 0001442  87.7799 272.3357 15.07208131 65903,6922.873,95.541,545.736,543.74,0.0
53801.0,STARLINK-4715,PAYLOAD,2023-11-13 16:29:57,15.0721084,0.0001432,53.218,106.7505,87.8124,272.3032,0.00012094,1.558e-05,0.0,0 STARLINK-4715,1 53801U 22111AE  23317.68746930  .00001558  00000-0  12094-3 0  9991,2 53801  53.2180 106.7505 0001432  87.8124 272.3032 15.07210840 65943,6922.865,95.541,545.721,543.738,0.0
53801.0,STARLINK-4715,PAYLOAD,2023-11-14 13:11:19,15.07199672,0.0001491,53.2183,102.8912,85.8441,274.272,-2.4737e-05,-6.6e-06,0.0,0 STARLINK-4715,1 53801U 22111AE  23318.54953433 -.00000660  00000-0 -24737-4 0  9998,2 53801  53.2183 102.8912 0001491  85.8441 274.2720 15.07199672 66079,6922.899,95.541,545.796,543.732,0.0
53801.0,STARLINK-4715,PAYLOAD,2023-11-14 19:33:16,15.0720384,0.0001504,53.2179,101.701,97.0497,263.0666,-2.542e-05,-6.7e-06,0.0,0 STARLINK-4715,1 53801U 22111AE  23318.81477876 -.00000670  00000-0 -25420-4 0  9991,2 53801  53.2179 101.7010 0001504  97.0497 263.0666 15.07203840 65305,6922.886,95.541,545.792,543.71,0.0
53801.0,STARLINK-4715,PAYLOAD,2023-11-15 13:03:39,15.07204208,0.0001589,53.2174,98.4343,98.5985,261.5186,-2.8969e-05,-7.24e-06,0.0,0 STARLINK-4715,1 53801U 22111AE  23319.54421059 -.00000724  00000-0 -28969-4 0  9995,2 53801  53.2174  98.4343 0001589  98.5985 261.5186 15.07204208 66223,6922.885,95.541,545.85,543.65,0.0
53801.0,STARLINK-4715,PAYLOAD,2023-11-15 16:14:38,15.07205285,0.0001579,53.2168,97.843,89.0733,271.0439,-1.2056e-05,-4.67e-06,0.0,0 STARLINK-4715,1 53801U 22111AE  23319.67683365 -.00000467  00000-0 -12056-4 0  9993,2 53801  53.2168  97.8430 0001579  89.0733 271.0439 15.07205285 66246,6922.882,95.541,545.84,543.653,0.0
53801.0,STARLINK-4715,PAYLOAD,2023-11-16 09:45:00,15.07223642,0.0002036,53.2165,94.5766,88.5953,271.5272,-0.00021688,-3.585e-05,0.0,0 STARLINK-4715,1 53801U 22111AE  23320.40626147 -.00003585  00000-0 -21688-3 0  9995,2 53801  53.2165  94.5766 0002036  88.5953 271.5272 15.07223642 65545,6922.825,95.54,546.1,543.281,0.0
53801.0,STARLINK-4715,PAYLOAD,2023-11-16 16:06:58,15.07206752,0.0001387,53.2175,93.388,93.2026,266.9124,0.00012621,1.638e-05,0.0,0 STARLINK-4715,1 53801U 22111AE  23320.67150833  .00001638  00000-0  12621-3 0  9990,2 53801  53.2175  93.3880 0001387  93.2026 266.9124 15.07206752 65583,6922.877,95.541,545.702,543.782,0.0
53801.0,STARLINK-4715,PAYLOAD,2023-11-17 12:48:20,15.07198698,0.0001235,53.2198,89.5303,90.4046,269.7087,1.5935e-05,-4.1e-07,0.0,0 STARLINK-4715,1 53801U 22111AE  23321.53357426 -.00000041  00000-0  15935-4 0  9993,2 53801  53.2198  89.5303 0001235  90.4046 269.7087 15.07198698 66521,6922.902,95.541,545.622,543.912,0.0
53801.0,STARLINK-4715,PAYLOAD,2023-11-17 17:34:48,15.07201635,8.5e-05,53.2182,88.636,65.5965,294.5115,3.1688e-05,1.99e-06,0.0,0 STARLINK-4715,1 53801U 22111AE  23321.73250787  .00000199  00000-0  31688-4 0  9993,2 53801  53.2182  88.6360 0000850  65.5965 294.5115 15.07201635 65749,6922.893,95.541,545.346,544.169,0.0
53801.0,STARLINK-4715,PAYLOAD,2023-11-18 12:40:42,15.07186746,9.19e-05,53.2172,85.0711,44.8751,315.2315,-0.00016015,-2.719e-05,0.0,0 STARLINK-4715,1 53801U 22111AE  23322.52827427 -.00002719  00000-0 -16015-3 0  9990,2 53801  53.2172  85.0711 0000919  44.8751 315.2315 15.07186746 65869,6922.938,95.542,545.44,544.167,0.0
53801.0,STARLINK-4715,PAYLOAD,2023-11-19 07:46:34,15.07204309,0.0001491,53.218,81.5067,103.767,256.3487,-2.4965e-06,-3.21e-06,0.0,0 STARLINK-4715,1 53801U 22111AE  23323.32400716 -.00000321  00000-0 -24965-5 0  9999,2 53801  53.2180  81.5067 0001491 103.7670 256.3487 15.07204309 65988,6922.885,95.541,545.782,543.717,0.0
53801.0,STARLINK-4715,PAYLOAD,2023-11-19 14:08:31,15.07174837,0.0001501,53.2176,80.3238,89.6805,270.4359,0.00059223,8.735e-05,0.0,0 STARLINK-4715,1 53801U 22111AE  23323.58925218  .00008735  00000-0  59223-3 0  9994,2 53801  53.2176  80.3238 0001501  89.6805 270.4359 15.07174837 66836,6922.975,95.543,545.879,543.801,0.0
53801.0,STARLINK-4715,PAYLOAD,2023-11-19 15:44:00,15.07178264,0.0001452,53.2181,80.0274,92.6762,267.4396,0.00063236,9.348e-05,0.0,0 STARLINK-4715,1 53801U 22111AE  23323.65556282  .00009348  00000-0  63236-3 0  9993,2 53801  53.2181  80.0274 0001452  92.6762 267.4396 15.07178264 66846,6922.964,95.543,545.835,543.824,0.0
53801.0,STARLINK-4715,PAYLOAD,2023-11-20 01:16:52,15.07330882,0.000103,53.2185,78.2455,118.7013,241.4082,-0.0015204,-0.0002343,0.0,0 STARLINK-4715,1 53801U 22111AE  23324.05338813 -.00023430  00000-0 -15204-2 0  9997,2 53801  53.2185  78.2455 0001030 118.7013 241.4082 15.07330882 66098,6922.497,95.533,545.075,543.649,0.0
53801.0,STARLINK-4715,PAYLOAD,2023-11-20 14:00:50,15.07224071,0.0001457,53.2184,75.8699,87.7845,272.3314,0.0002129,2.96e-05,0.0,0 STARLINK-4715,1 53801U 22111AE  23324.58391455  .00002960  00000-0  21290-3 0  9992,2 53801  53.2184  75.8699 0001457  87.7845 272.3314 15.07224071 66982,6922.824,95.54,545.698,543.68,0.0
53801.0,STARLINK-4715,PAYLOAD,2023-11-20 18:47:17,15.07231657,0.0001499,53.2187,74.9793,88.5577,271.5586,0.00027214,3.864e-05,0.0,0 STARLINK-4715,1 53801U 22111AE  23324.78284210  .00003864  00000-0  27214-3 0  9990,2 53801  53.2187  74.9793 0001499  88.5577 271.5586 15.07231657 66202,6922.801,95.539,545.704,543.628,0.0
53801.0,STARLINK-4715,PAYLOAD,2023-11-20 20:22:46,15.07233628,0.0001502,53.2188,74.6823,89.1957,270.9206,0.0002915,4.16e-05,0.0,0 STARLINK-4715,1 53801U 22111AE  23324.84915172  .00004160  00000-0  29150-3 0  9996,2 53801  53.2188  74.6823 0001502  89.1957 270.9206 15.07233628 67021,6922.795,95.539,545.7,543.62,0.0
